{"type": "FeatureCollection", "features": [ {"type": "Feature", "properties": {"norad_id": 44476, "name": "INTELSAT 39 (IS-39)", "group": "intelsat", "lat": 0.01838201571060225, "lon": -4.447412684449281, "alt_km": 35790.618729270886, "timestamp": "2025-12-16T13:52:37.197659+00:00", "meta": {"OBJECT_NAME": "INTELSAT 39 (IS-39)", "OBJECT_ID": "2019-049B", "EPOCH": "2025-12-15T22:14:37.836384", "MEAN_MOTION": 1.00272405, "ECCENTRICITY": 0.00013119, "INCLINATION": 0.0175, "RA_OF_ASC_NODE": 322.8511, "ARG_OF_PERICENTER": 182.5588, "MEAN_ANOMALY": 335.0211, "EPHEMERIS_TYPE": 0, "CLASSIFICATION_TYPE": "U", "NORAD_CAT_ID": 44476, "ELEMENT_SET_NO": 999, "REV_AT_EPOCH": 2329, "BSTAR": 0, "MEAN_MOTION_DOT": 5.6e-07, "MEAN_MOTION_DDOT": 0}, "tle": {"line1": "1 44476U 19049B   25349.92682681  .00000056  00000+0  00000+0 0  9992", "line2": "2 44476   0.0175 322.8511 0001311 182.5588 335.0211  1.00272405 23297"}}, "geometry": {"type": "Point", "coordinates": [-4.447412684449281, 0.01838201571060225]}}, {"type": "Feature", "properties": {"norad_id": 46114, "name": "GALAXY 30 (G-30)", "group": "intelsat", "lat": 0.004022426235978373, "lon": 168.58912132446397, "alt_km": 35786.66795804163, "timestamp": "2025-12-16T13:52:37.197670+00:00", "meta": {"OBJECT_NAME": "GALAXY 30 (G-30)", "OBJECT_ID": "2020-056C", "EPOCH": "2025-12-15T21:20:57.976224", "MEAN_MOTION": 1.00271624, "ECCENTRICITY": 0.00020781, "INCLINATION": 0.0181, "RA_OF_ASC_NODE": 4.1804, "ARG_OF_PERICENTER": 258.2613, "MEAN_ANOMALY": 17.591, "EPHEMERIS_TYPE": 0, "CLASSIFICATION_TYPE": "U", "NORAD_CAT_ID": 46114, "ELEMENT_SET_NO": 999, "REV_AT_EPOCH": 1945, "BSTAR": 0, "MEAN_MOTION_DOT": 5.9e-07, "MEAN_MOTION_DDOT": 0}, "tle": {"line1": "1 46114U 20056C   25349.88955991  .00000059  00000+0  00000+0 0  9998", "line2": "2 46114   0.0181   4.1804 0002078 258.2613  17.5910  1.00271624 19454"}}, "geometry": {"type": "Point", "coordinates": [168.58912132446397, 0.004022426235978373]}}, {"type": "Feature", "properties": {"norad_id": 54026, "name": "GALAXY 33 (G-33)", "group": "intelsat", "lat": 0.00021146511915423767, "lon": 160.5987868250929, "alt_km": 35786.77611919936, "timestamp": "2025-12-16T13:52:37.197682+00:00", "meta": {"OBJECT_NAME": "GALAXY 33 (G-33)", "OBJECT_ID": "2022-128A", "EPOCH": "2025-12-15T12:45:19.351872", "MEAN_MOTION": 1.00272882, "ECCENTRICITY": 0.00018072, "INCLINATION": 0.0131, "RA_OF_ASC_NODE": 342.9246, "ARG_OF_PERICENTER": 275.9027, "MEAN_ANOMALY": 243.9429, "EPHEMERIS_TYPE": 0, "CLASSIFICATION_TYPE": "U", "NORAD_CAT_ID": 54026, "ELEMENT_SET_NO": 999, "REV_AT_EPOCH": 1190, "BSTAR": 0, "MEAN_MOTION_DOT": 1e-06, "MEAN_MOTION_DDOT": 0}, "tle": {"line1": "1 54026U 22128A   25349.53147398  .00000100  00000+0  00000+0 0  9994", "line2": "2 54026   0.0131 342.9246 0001807 275.9027 243.9429  1.00272882 11906"}}, "geometry": {"type": "Point", "coordinates": [160.5987868250929, 0.00021146511915423767]}}, {"type": "Feature", "properties": {"norad_id": 54027, "name": "GALAXY 34 (G-34)", "group": "intelsat", "lat": -0.009645861590633069, "lon": 164.66480140325612, "alt_km": 35786.467340636365, "timestamp": "2025-12-16T13:52:37.197693+00:00", "meta": {"OBJECT_NAME": "GALAXY 34 (G-34)", "OBJECT_ID": "2022-128B", "EPOCH": "2025-12-15T15:38:33.689184", "MEAN_MOTION": 1.00271096, "ECCENTRICITY": 0.0001421, "INCLINATION": 0.0249, "RA_OF_ASC_NODE": 330.7598, "ARG_OF_PERICENTER": 286.3955, "MEAN_ANOMALY": 293.1117, "EPHEMERIS_TYPE": 0, "CLASSIFICATION_TYPE": "U", "NORAD_CAT_ID": 54027, "ELEMENT_SET_NO": 999, "REV_AT_EPOCH": 1207, "BSTAR": 0, "MEAN_MOTION_DOT": 0, "MEAN_MOTION_DDOT": 0}, "tle": {"line1": "1 54027U 22128B   25349.65177881  .00000000  00000+0  00000+0 0  9997", "line2": "2 54027   0.0249 330.7598 0001421 286.3955 293.1117  1.00271096 12076"}}, "geometry": {"type": "Point", "coordinates": [164.66480140325612, -0.009645861590633069]}}, {"type": "Feature", "properties": {"norad_id": 54243, "name": "GALAXY 31 (G-31)", "group": "intelsat", "lat": 0.0016779357422635039, "lon": 172.58511077793807, "alt_km": 35787.91343638065, "timestamp": "2025-12-16T13:52:37.197705+00:00", "meta": {"OBJECT_NAME": "GALAXY 31 (G-31)", "OBJECT_ID": "2022-153A", "EPOCH": "2025-12-15T15:08:47.593824", "MEAN_MOTION": 1.0027139, "ECCENTRICITY": 0.00014655, "INCLINATION": 0.0143, "RA_OF_ASC_NODE": 6.9091, "ARG_OF_PERICENTER": 272.4598, "MEAN_ANOMALY": 271.3548, "EPHEMERIS_TYPE": 0, "CLASSIFICATION_TYPE": "U", "NORAD_CAT_ID": 54243, "ELEMENT_SET_NO": 999, "REV_AT_EPOCH": 529, "BSTAR": 0, "MEAN_MOTION_DOT": 0, "MEAN_MOTION_DDOT": 0}, "tle": {"line1": "1 54243U 22153A   25349.63110641  .00000000  00000+0  00000+0 0  9994", "line2": "2 54243   0.0143   6.9091 0001465 272.4598 271.3548  1.00271390  5295"}}, "geometry": {"type": "Point", "coordinates": [172.58511077793807, 0.0016779357422635039]}}, {"type": "Feature", "properties": {"norad_id": 54244, "name": "GALAXY 32 (G-32)", "group": "intelsat", "lat": -0.023336961280346753, "lon": -157.41584460625688, "alt_km": 35790.49056584118, "timestamp": "2025-12-16T13:52:37.197716+00:00", "meta": {"OBJECT_NAME": "GALAXY 32 (G-32)", "OBJECT_ID": "2022-153B", "EPOCH": "2025-12-15T09:31:52.876128", "MEAN_MOTION": 1.00271814, "ECCENTRICITY": 0.00025704, "INCLINATION": 0.009, "RA_OF_ASC_NODE": 336.4403, "ARG_OF_PERICENTER": 340.1311, "MEAN_ANOMALY": 179.7028, "EPHEMERIS_TYPE": 0, "CLASSIFICATION_TYPE": "U", "NORAD_CAT_ID": 54244, "ELEMENT_SET_NO": 999, "REV_AT_EPOCH": 1130, "BSTAR": 0, "MEAN_MOTION_DOT": -1.53e-06, "MEAN_MOTION_DDOT": 0}, "tle": {"line1": "1 54244U 22153B   25349.39713977 -.00000153  00000+0  00000+0 0  9999", "line2": "2 54244   0.0090 336.4403 0002570 340.1311 179.7028  1.00271814 11303"}}, "geometry": {"type": "Point", "coordinates": [-157.41584460625688, -0.023336961280346753]}}, {"type": "Feature", "properties": {"norad_id": 54741, "name": "GALAXY 35 (G-35)", "group": "intelsat", "lat": -0.0220196965408445, "lon": -159.53422451347208, "alt_km": 35783.78453241505, "timestamp": "2025-12-16T13:52:37.197728+00:00", "meta": {"OBJECT_NAME": "GALAXY 35 (G-35)", "OBJECT_ID": "2022-170A", "EPOCH": "2025-12-15T21:30:19.579680", "MEAN_MOTION": 1.00269192, "ECCENTRICITY": 0.0002262, "INCLINATION": 0.0164, "RA_OF_ASC_NODE": 353.0108, "ARG_OF_PERICENTER": 278.9584, "MEAN_ANOMALY": 42.2938, "EPHEMERIS_TYPE": 0, "CLASSIFICATION_TYPE": "U", "NORAD_CAT_ID": 54741, "ELEMENT_SET_NO": 999, "REV_AT_EPOCH": 1105, "BSTAR": 0, "MEAN_MOTION_DOT": 0, "MEAN_MOTION_DDOT": 0}, "tle": {"line1": "1 54741U 22170A   25349.89605995  .00000000  00000+0  00000+0 0  9995", "line2": "2 54741   0.0164 353.0108 0002262 278.9584  42.2938  1.00269192 11054"}}, "geometry": {"type": "Point", "coordinates": [-159.53422451347208, -0.0220196965408445]}}, {"type": "Feature", "properties": {"norad_id": 54742, "name": "GALAXY 36 (G-36)", "group": "intelsat", "lat": -0.023436046785459116, "lon": -155.39039491325815, "alt_km": 35786.94740111235, "timestamp": "2025-12-16T13:52:37.197740+00:00", "meta": {"OBJECT_NAME": "GALAXY 36 (G-36)", "OBJECT_ID": "2022-170B", "EPOCH": "2025-12-15T21:31:26.971680", "MEAN_MOTION": 1.00271438, "ECCENTRICITY": 3.153e-05, "INCLINATION": 0.0181, "RA_OF_ASC_NODE": 265.0007, "ARG_OF_PERICENTER": 63.01, "MEAN_ANOMALY": 350.6505, "EPHEMERIS_TYPE": 0, "CLASSIFICATION_TYPE": "U", "NORAD_CAT_ID": 54742, "ELEMENT_SET_NO": 999, "REV_AT_EPOCH": 1093, "BSTAR": 0, "MEAN_MOTION_DOT": -1.63e-06, "MEAN_MOTION_DDOT": 0}, "tle": {"line1": "1 54742U 22170B   25349.89683995 -.00000163  00000+0  00000+0 0  9993", "line2": "2 54742   0.0181 265.0007 0000315  63.0100 350.6505  1.00271438 10936"}}, "geometry": {"type": "Point", "coordinates": [-155.39039491325815, -0.023436046785459116]}}, {"type": "Feature", "properties": {"norad_id": 57493, "name": "GALAXY 37 (G-37)", "group": "intelsat", "lat": 0.017808197497724543, "lon": 166.5986055546026, "alt_km": 35787.72026388212, "timestamp": "2025-12-16T13:52:37.197751+00:00", "meta": {"OBJECT_NAME": "GALAXY 37 (G-37)", "OBJECT_ID": "2023-112A", "EPOCH": "2025-12-15T17:55:13.094112", "MEAN_MOTION": 1.0027286, "ECCENTRICITY": 0.00019986, "INCLINATION": 0.0237, "RA_OF_ASC_NODE": 55.0221, "ARG_OF_PERICENTER": 215.3705, "MEAN_ANOMALY": 316.0664, "EPHEMERIS_TYPE": 0, "CLASSIFICATION_TYPE": "U", "NORAD_CAT_ID": 57493, "ELEMENT_SET_NO": 999, "REV_AT_EPOCH": 870, "BSTAR": 0, "MEAN_MOTION_DOT": 7e-07, "MEAN_MOTION_DDOT": 0}, "tle": {"line1": "1 57493U 23112A   25349.74667933  .00000070  00000+0  00000+0 0  9990", "line2": "2 57493   0.0237  55.0221 0001998 215.3705 316.0664  1.00272860  8704"}}, "geometry": {"type": "Point", "coordinates": [166.5986055546026, 0.017808197497724543]}}]}